NORAD_CAT_ID,OBJECT_NAME,OBJECT_TYPE,EPOCH,MEAN_MOTION,ECCENTRICITY,INCLINATION,RA_OF_ASC_NODE,ARG_OF_PERICENTER,MEAN_ANOMALY,BSTAR,MEAN_MOTION_DOT,MEAN_MOTION_DDOT,TLE_LINE0,TLE_LINE1,TLE_LINE2,SEMIMAJOR_AXIS,PERIOD,APOGEE,PERIGEE,DECAYED
49438.0,STARLINK-3044,PAYLOAD,2022-11-03 07:08:14,15.08836595,0.0002535,53.2172,296.6629,37.6903,322.4267,2.8417e-05,1.64e-06,0.0,0 STARLINK-3044,1 49438U 21104AG  22307.29738977  .00000164  00000-0  28417-4 0  9999,2 49438  53.2172 296.6629 0002535  37.6903 322.4267 15.08836595 55447,6917.891,95.438,541.509,538.002,0.0
49438.0,STARLINK-3044,PAYLOAD,2022-11-03 23:02:04,15.08851872,0.00026,53.218,293.6893,35.0858,325.0305,0.00014717,2.055e-05,0.0,0 STARLINK-3044,1 49438U 21104AG  22307.95977954  .00002055  00000-0  14717-3 0  9990,2 49438  53.2180 293.6893 0002600  35.0858 325.0305 15.08851872 55548,6917.844,95.437,541.508,537.91,0.0
49438.0,STARLINK-3044,PAYLOAD,2022-11-04 08:34:23,15.08854226,0.0002374,53.2167,291.9026,36.5521,323.5633,0.00026537,3.939e-05,0.0,0 STARLINK-3044,1 49438U 21104AG  22308.35721860  .00003939  00000-0  26537-3 0  9993,2 49438  53.2167 291.9026 0002374  36.5521 323.5633 15.08854226 54534,6917.837,95.437,541.344,538.06,0.0
49438.0,STARLINK-3044,PAYLOAD,2022-11-05 02:03:38,15.08848252,0.0002463,53.2168,288.6332,37.0097,323.1065,0.00012732,1.739e-05,0.0,0 STARLINK-3044,1 49438U 21104AG  22309.08586044  .00001739  00000-0  12732-3 0  9995,2 49438  53.2168 288.6332 0002463  37.0097 323.1065 15.08848252 55719,6917.855,95.437,541.424,538.016,0.0
49438.0,STARLINK-3044,PAYLOAD,2022-11-05 08:25:11,15.08842425,0.0002535,53.2162,287.4452,29.9462,330.1675,1.675e-05,-2.2e-07,0.0,0 STARLINK-3044,1 49438U 21104AG  22309.35082180 -.00000022  00000-0  16750-4 0  9997,2 49438  53.2162 287.4452 0002535  29.9462 330.1675 15.08842425 54685,6917.873000000001,95.437,541.492,537.984,0.0
49438.0,STARLINK-3044,PAYLOAD,2022-11-06 05:05:13,15.08823072,0.0002399,53.2167,283.5783,32.8994,327.2147,-0.00012468,-2.271e-05,0.0,0 STARLINK-3044,1 49438U 21104AG  22310.21196052 -.00002271  00000-0 -12468-3 0  9998,2 49438  53.2167 283.5783 0002399  32.8994 327.2147 15.08823072 55886,6917.932,95.439,541.457,538.138,0.0
49438.0,STARLINK-3044,PAYLOAD,2022-11-06 06:40:36,15.08825183,0.0002422,53.2166,283.2807,32.5893,327.5248,-8.4765e-05,-1.637e-05,0.0,0 STARLINK-3044,1 49438U 21104AG  22310.27820024 -.00001637  00000-0 -84765-4 0  9992,2 49438  53.2166 283.2807 0002422  32.5893 327.5248 15.08825183 54824,6917.926,95.438,541.466,538.115,0.0
49438.0,STARLINK-3044,PAYLOAD,2022-11-06 20:59:04,15.08835823,0.0002487,53.2166,280.6047,30.5864,329.5273,0.00018446,2.648e-05,0.0,0 STARLINK-3044,1 49438U 21104AG  22310.87435906  .00002648  00000-0  18446-3 0  9992,2 49438  53.2166 280.6047 0002487  30.5864 329.5273 15.08835823 55988,6917.893,95.438,541.479,538.038,0.0
49438.0,STARLINK-3044,PAYLOAD,2022-11-07 20:49:52,15.08838074,0.0002685,53.2161,276.1423,23.8967,336.2149,0.00025718,3.807e-05,0.0,0 STARLINK-3044,1 49438U 21104AG  22311.86796592  .00003807  00000-0  25718-3 0  9991,2 49438  53.2161 276.1423 0002685  23.8967 336.2149 15.08838074 56136,6917.886,95.438,541.609,537.894,0.0
49438.0,STARLINK-3044,PAYLOAD,2022-11-08 04:46:47,15.08862787,0.000248,53.2169,274.6566,26.5114,333.6005,0.00064251,9.959e-05,0.0,0 STARLINK-3044,1 49438U 21104AG  22312.19915594  .00009959  00000-0  64251-3 0  9992,2 49438  53.2169 274.6566 0002480  26.5114 333.6005 15.08862787 56187,6917.811,95.436,541.391,537.96,0.0
49438.0,STARLINK-3044,PAYLOAD,2022-11-08 07:57:33,15.0886451,0.0002307,53.2171,274.0628,29.9923,330.1201,0.00067374,0.00010458,0.0,0 STARLINK-3044,1 49438U 21104AG  22312.33163436  .00010458  00000-0  67374-3 0  9993,2 49438  53.2171 274.0628 0002307  29.9923 330.1201 15.08864510 55136,6917.805,95.436,541.266,538.075,0.0
49438.0,STARLINK-3044,PAYLOAD,2022-11-08 14:19:05,15.08868102,0.0002353,53.2166,272.8729,26.6653,333.446,0.00076007,0.00011839,0.0,0 STARLINK-3044,1 49438U 21104AG  22312.59659138  .00011839  00000-0  76007-3 0  9997,2 49438  53.2166 272.8729 0002353  26.6653 333.4460 15.08868102 55171,6917.794,95.436,541.2869999999998,538.0319999999998,0.0
49438.0,STARLINK-3044,PAYLOAD,2022-11-09 14:09:51,15.0884329,0.0003066,53.2169,268.4085,37.4154,322.7051,-0.00041979,-6.965e-05,0.0,0 STARLINK-3044,1 49438U 21104AG  22313.59018434 -.00006965  00000-0 -41979-3 0  9992,2 49438  53.2169 268.4085 0003066  37.4154 322.7051 15.08843290 55323,6917.87,95.437,541.856,537.614,0.0
49438.0,STARLINK-3044,PAYLOAD,2022-11-09 20:31:24,15.08831852,0.0003176,53.2161,267.2232,46.1326,313.9928,-0.00052888,-8.695e-05,0.0,0 STARLINK-3044,1 49438U 21104AG  22313.85514943 -.00008695  00000-0 -52888-3 0  9990,2 49438  53.2161 267.2232 0003176  46.1326 313.9928 15.08831852 56435,6917.905,95.438,541.967,537.573,0.0
49438.0,STARLINK-3044,PAYLOAD,2022-11-10 02:52:57,15.08812729,0.000213,53.217,266.0328,36.2584,323.8552,-0.00044476,-7.354e-05,0.0,0 STARLINK-3044,1 49438U 21104AG  22314.12011381 -.00007354  00000-0 -44476-3 0  9994,2 49438  53.2170 266.0328 0002130  36.2584 323.8552 15.08812729 56472,6917.964,95.439,541.302,538.355,0.0
49438.0,STARLINK-3044,PAYLOAD,2022-11-10 06:03:44,15.08808944,0.0002403,53.2165,265.4386,29.8896,330.2232,0.0015676,0.00024728,0.0,0 STARLINK-3044,1 49438U 21104AG  22314.25259998  .00024728  00000-0  15676-2 0  9997,2 49438  53.2165 265.4386 0002403  29.8896 330.2232 15.08808944 55425,6917.975,95.44,541.503,538.178,0.0
49438.0,STARLINK-3044,PAYLOAD,2022-11-10 14:00:41,15.08790635,0.0002361,53.2157,263.9508,32.7808,327.333,0.00031691,4.752e-05,0.0,0 STARLINK-3044,1 49438U 21104AG  22314.58381350  .00004752  00000-0  31691-3 0  9992,2 49438  53.2157 263.9508 0002361  32.7808 327.3330 15.08790635 56541,6918.031,95.441,541.53,538.263,0.0
49438.0,STARLINK-3044,PAYLOAD,2022-11-11 05:54:33,15.08836468,0.0002451,53.2159,260.9802,30.7489,329.3646,0.0012901,0.00020302,0.0,0 STARLINK-3044,1 49438U 21104AG  22315.24621851  .00020302  00000-0  12901-2 0  9990,2 49438  53.2159 260.9802 0002451  30.7489 329.3646 15.08836468 56648,6917.891,95.438,541.452,538.061,0.0
49438.0,STARLINK-3044,PAYLOAD,2022-11-11 13:51:28,15.088599,0.0002436,53.2161,259.4923,31.335,328.7787,0.0015812,0.00024981,0.0,0 STARLINK-3044,1 49438U 21104AG  22315.57741516  .00024981  00000-0  15812-2 0  9998,2 49438  53.2161 259.4923 0002436  31.3350 328.7787 15.08859900 56695,6917.82,95.436,541.37,537.999,0.0
49438.0,STARLINK-3044,PAYLOAD,2022-11-12 02:34:33,15.08858287,0.0002504,53.217,257.1151,28.7149,331.3981,0.00053199,8.193e-05,0.0,0 STARLINK-3044,1 49438U 21104AG  22316.10733036  .00008193  00000-0  53199-3 0  9994,2 49438  53.2170 257.1151 0002504  28.7149 331.3981 15.08858287 56777,6917.824000000001,95.436,541.422,537.957,0.0
49438.0,STARLINK-3044,PAYLOAD,2022-11-13 02:25:19,15.08855126,0.0002615,53.2169,252.655,28.303,331.8104,0.00019332,2.791e-05,0.0,0 STARLINK-3044,1 49438U 21104AG  22317.10092251  .00002791  00000-0  19332-3 0  9991,2 49438  53.2169 252.6550 0002615  28.3030 331.8104 15.08855126 56924,6917.834,95.437,541.508,537.89,0.0
49438.0,STARLINK-3044,PAYLOAD,2022-11-14 05:26:53,15.08832567,0.0002487,53.2172,247.5968,35.6622,324.4536,-0.00015943,-2.824e-05,0.0,0 STARLINK-3044,1 49438U 21104AG  22318.22701049 -.00002824  00000-0 -15943-3 0  9990,2 49438  53.2172 247.5968 0002487  35.6622 324.4536 15.08832567 57099,6917.903,95.438,541.489,538.048,0.0
49438.0,STARLINK-3044,PAYLOAD,2022-11-15 11:39:13,15.08834688,0.0002461,53.2165,241.9483,33.1015,327.0131,0.00013034,1.786e-05,0.0,0 STARLINK-3044,1 49438U 21104AG  22319.48557529  .00001786  00000-0  13034-3 0  9994,2 49438  53.2165 241.9483 0002461  33.1015 327.0131 15.08834688 56211,6917.897,95.438,541.464,538.059,0.0
49438.0,STARLINK-3044,PAYLOAD,2022-11-16 05:08:28,15.08836851,0.0002403,53.2161,238.677,34.3881,325.7267,0.00015188,2.13e-05,0.0,0 STARLINK-3044,1 49438U 21104AG  22320.21421709  .00002130  00000-0  15188-3 0  9993,2 49438  53.2161 238.6770 0002403  34.3881 325.7267 15.08836851 56320,6917.89,95.438,541.4169999999998,538.0930000000002,0.0
49438.0,STARLINK-3044,PAYLOAD,2022-11-17 00:13:05,15.08841111,0.0002575,53.2169,235.1082,36.3243,323.7924,0.00012427,1.6899999999999994e-05,0.0,0 STARLINK-3044,1 49438U 21104AG  22321.00909588  .00001690  00000-0  12427-3 0  9990,2 49438  53.2169 235.1082 0002575  36.3243 323.7924 15.08841111 57515,6917.877,95.437,541.523,537.961,0.0
49438.0,STARLINK-3044,PAYLOAD,2022-11-17 03:23:52,15.08836258,0.0002388,53.2162,234.5135,35.1632,324.9518,1.5412e-05,-4.3e-07,0.0,0 STARLINK-3044,1 49438U 21104AG  22321.14157735 -.00000043  00000-0  15412-4 0  9994,2 49438  53.2162 234.5135 0002388  35.1632 324.9518 15.08836258 56462,6917.892,95.438,541.409,538.105,0.0
49438.0,STARLINK-3044,PAYLOAD,2022-11-18 03:14:39,15.08844127,0.0002403,53.2162,230.0533,32.1805,327.9334,0.00018741,2.696e-05,0.0,0 STARLINK-3044,1 49438U 21104AG  22322.13517489  .00002696  00000-0  18741-3 0  9992,2 49438  53.2162 230.0533 0002403  32.1805 327.9334 15.08844127 57680,6917.868,95.437,541.395,538.07,0.0
49438.0,STARLINK-3044,PAYLOAD,2022-11-18 11:11:35,15.08840522,0.0002505,53.2164,228.5666,33.8663,326.2489,0.00011849,1.598e-05,0.0,0 STARLINK-3044,1 49438U 21104AG  22322.46637882  .00001598  00000-0  11849-3 0  9990,2 49438  53.2164 228.5666 0002505  33.8663 326.2489 15.08840522 56669,6917.879,95.438,541.477,538.011,0.0
49438.0,STARLINK-3044,PAYLOAD,2022-11-19 03:05:25,15.08851357,0.0002451,53.2158,225.5928,32.1386,327.9755,0.00033624,5.069e-05,0.0,0 STARLINK-3044,1 49438U 21104AG  22323.12877306  .00005069  00000-0  33624-3 0  9993,2 49438  53.2158 225.5928 0002451  32.1386 327.9755 15.08851357 56767,6917.846,95.437,541.406,538.015,0.0
